{"type": "FeatureCollection", "features": [ {"type": "Feature", "properties": {"norad_id": 52984, "name": "COSMOS 2557 (706K)", "group": "gnss", "lat": -38.830393975083254, "lon": 163.88916815614795, "alt_km": 19113.62019889534, "timestamp": "2025-12-07T22:37:43.323206+00:00", "meta": {"OBJECT_NAME": "COSMOS 2557 (706K)", "OBJECT_ID": "2022-075A", "EPOCH": "2025-12-06T05:49:32.114784", "MEAN_MOTION": 2.13101746, "ECCENTRICITY": 0.001371, "INCLINATION": 64.4134, "RA_OF_ASC_NODE": 321.2801, "ARG_OF_PERICENTER": 276.8497, "MEAN_ANOMALY": 82.9895, "EPHEMERIS_TYPE": 0, "CLASSIFICATION_TYPE": "U", "NORAD_CAT_ID": 52984, "ELEMENT_SET_NO": 999, "REV_AT_EPOCH": 2660, "BSTAR": 0, "MEAN_MOTION_DOT": -5.1e-07, "MEAN_MOTION_DDOT": 0}, "tle": {"line1": "1 52984U 22075A   25340.24273281 -.00000051  00000+0  00000+0 0  9992", "line2": "2 52984  64.4134 321.2801 0013710 276.8497  82.9895  2.13101746 26604"}}, "geometry": {"type": "Point", "coordinates": [163.88916815614795, -38.830393975083254]}}, {"type": "Feature", "properties": {"norad_id": 54031, "name": "COSMOS 2559 (707K)", "group": "gnss", "lat": 2.705846603229657, "lon": -37.403456255451445, "alt_km": 19160.331784918693, "timestamp": "2025-12-07T22:37:43.323225+00:00", "meta": {"OBJECT_NAME": "COSMOS 2559 (707K)", "OBJECT_ID": "2022-130A", "EPOCH": "2025-12-03T17:10:26.893920", "MEAN_MOTION": 2.13101235, "ECCENTRICITY": 0.00120262, "INCLINATION": 64.3873, "RA_OF_ASC_NODE": 321.4588, "ARG_OF_PERICENTER": 192.7508, "MEAN_ANOMALY": 167.2215, "EPHEMERIS_TYPE": 0, "CLASSIFICATION_TYPE": "U", "NORAD_CAT_ID": 54031, "ELEMENT_SET_NO": 999, "REV_AT_EPOCH": 2452, "BSTAR": 0, "MEAN_MOTION_DOT": -4.4e-07, "MEAN_MOTION_DDOT": 0}, "tle": {"line1": "1 54031U 22130A   25337.71558905 -.00000044  00000+0  00000+0 0  9998", "line2": "2 54031  64.3873 321.4588 0012026 192.7508 167.2215  2.13101235 24525"}}, "geometry": {"type": "Point", "coordinates": [-37.403456255451445, 2.705846603229657]}}, {"type": "Feature", "properties": {"norad_id": 54377, "name": "COSMOS 2564 (761)", "group": "gnss", "lat": 49.77052501615942, "lon": -14.87109199672138, "alt_km": 19121.65023385498, "timestamp": "2025-12-07T22:37:43.323242+00:00", "meta": {"OBJECT_NAME": "COSMOS 2564 (761)", "OBJECT_ID": "2022-161A", "EPOCH": "2025-12-06T20:16:19.958016", "MEAN_MOTION": 2.13101987, "ECCENTRICITY": 0.0008674, "INCLINATION": 64.7378, "RA_OF_ASC_NODE": 199.0949, "ARG_OF_PERICENTER": 205.6872, "MEAN_ANOMALY": 154.3558, "EPHEMERIS_TYPE": 0, "CLASSIFICATION_TYPE": "U", "NORAD_CAT_ID": 54377, "ELEMENT_SET_NO": 999, "REV_AT_EPOCH": 2353, "BSTAR": 0, "MEAN_MOTION_DOT": 6.7e-07, "MEAN_MOTION_DDOT": 0}, "tle": {"line1": "1 54377U 22161A   25340.84467544  .00000067  00000+0  00000+0 0  9995", "line2": "2 54377  64.7378 199.0949 0008674 205.6872 154.3558  2.13101987 23535"}}, "geometry": {"type": "Point", "coordinates": [-14.87109199672138, 49.77052501615942]}}, {"type": "Feature", "properties": {"norad_id": 55268, "name": "GPS BIII-6  (PRN 28)", "group": "gnss", "lat": -32.02583682808985, "lon": 130.12955151866393, "alt_km": 20179.24906267234, "timestamp": "2025-12-07T22:37:43.323263+00:00", "meta": {"OBJECT_NAME": "GPS BIII-6  (PRN 28)", "OBJECT_ID": "2023-009A", "EPOCH": "2025-12-07T05:54:14.393088", "MEAN_MOTION": 2.00556057, "ECCENTRICITY": 0.00036245, "INCLINATION": 55.1044, "RA_OF_ASC_NODE": 156.061, "ARG_OF_PERICENTER": 357.0717, "MEAN_ANOMALY": 179.5009, "EPHEMERIS_TYPE": 0, "CLASSIFICATION_TYPE": "U", "NORAD_CAT_ID": 55268, "ELEMENT_SET_NO": 999, "REV_AT_EPOCH": 2139, "BSTAR": 0, "MEAN_MOTION_DOT": 5.8e-07, "MEAN_MOTION_DDOT": 0}, "tle": {"line1": "1 55268U 23009A   25341.24599992  .00000058  00000+0  00000+0 0  9995", "line2": "2 55268  55.1044 156.0610 0003624 357.0717 179.5009  2.00556057 21397"}}, "geometry": {"type": "Point", "coordinates": [130.12955151866393, -32.02583682808985]}}, {"type": "Feature", "properties": {"norad_id": 56564, "name": "BEIDOU-3 G4 (C62)", "group": "gnss", "lat": -0.8426382558110171, "lon": -143.53118129307944, "alt_km": 35776.09679469146, "timestamp": "2025-12-07T22:37:43.323284+00:00", "meta": {"OBJECT_NAME": "BEIDOU-3 G4 (C62)", "OBJECT_ID": "2023-066A", "EPOCH": "2025-12-07T05:50:07.288224", "MEAN_MOTION": 1.00271017, "ECCENTRICITY": 0.00031238, "INCLINATION": 0.8274, "RA_OF_ASC_NODE": 301.6019, "ARG_OF_PERICENTER": 236.686, "MEAN_ANOMALY": 145.5792, "EPHEMERIS_TYPE": 0, "CLASSIFICATION_TYPE": "U", "NORAD_CAT_ID": 56564, "ELEMENT_SET_NO": 999, "REV_AT_EPOCH": 947, "BSTAR": 0, "MEAN_MOTION_DOT": -1.06e-06, "MEAN_MOTION_DDOT": 0}, "tle": {"line1": "1 56564U 23066A   25341.24313991 -.00000106  00000+0  00000+0 0  9996", "line2": "2 56564   0.8274 301.6019 0003123 236.6860 145.5792  1.00271017  9471"}}, "geometry": {"type": "Point", "coordinates": [-143.53118129307944, -0.8426382558110171]}}, {"type": "Feature", "properties": {"norad_id": 56759, "name": "NVS-01 (IRNSS-1J)", "group": "gnss", "lat": -2.4163726565969568, "lon": -174.23266226974008, "alt_km": 35777.92920710683, "timestamp": "2025-12-07T22:37:43.323303+00:00", "meta": {"OBJECT_NAME": "NVS-01 (IRNSS-1J)", "OBJECT_ID": "2023-076A", "EPOCH": "2025-12-07T05:41:23.125344", "MEAN_MOTION": 1.00265537, "ECCENTRICITY": 0.00087099, "INCLINATION": 2.6322, "RA_OF_ASC_NODE": 251.7987, "ARG_OF_PERICENTER": 7.7493, "MEAN_ANOMALY": 31.5411, "EPHEMERIS_TYPE": 0, "CLASSIFICATION_TYPE": "U", "NORAD_CAT_ID": 56759, "ELEMENT_SET_NO": 999, "REV_AT_EPOCH": 919, "BSTAR": 0, "MEAN_MOTION_DOT": -3.3e-06, "MEAN_MOTION_DDOT": 0}, "tle": {"line1": "1 56759U 23076A   25341.23707321 -.00000330  00000+0  00000+0 0  9995", "line2": "2 56759   2.6322 251.7987 0008709   7.7493  31.5411  1.00265537  9195"}}, "geometry": {"type": "Point", "coordinates": [-174.23266226974008, -2.4163726565969568]}}, {"type": "Feature", "properties": {"norad_id": 57517, "name": "COSMOS 2569 (703K)", "group": "gnss", "lat": 57.242061254878145, "lon": -146.78189755593402, "alt_km": 19149.069217297365, "timestamp": "2025-12-07T22:37:43.323320+00:00", "meta": {"OBJECT_NAME": "COSMOS 2569 (703K)", "OBJECT_ID": "2023-114A", "EPOCH": "2025-12-01T16:42:34.469856", "MEAN_MOTION": 2.13103822, "ECCENTRICITY": 0.0010109, "INCLINATION": 65.1883, "RA_OF_ASC_NODE": 79.2867, "ARG_OF_PERICENTER": 287.0179, "MEAN_ANOMALY": 72.8703, "EPHEMERIS_TYPE": 0, "CLASSIFICATION_TYPE": "U", "NORAD_CAT_ID": 57517, "ELEMENT_SET_NO": 999, "REV_AT_EPOCH": 1805, "BSTAR": 0, "MEAN_MOTION_DOT": -1.6e-07, "MEAN_MOTION_DDOT": 0}, "tle": {"line1": "1 57517U 23114A   25335.69623229 -.00000016  00000+0  00000+0 0  9999", "line2": "2 57517  65.1883  79.2867 0010109 287.0179  72.8703  2.13103822 18055"}}, "geometry": {"type": "Point", "coordinates": [-146.78189755593402, 57.242061254878145]}}, {"type": "Feature", "properties": {"norad_id": 58654, "name": "BEIDOU-3 M28 (C50)", "group": "gnss", "lat": -36.574097846753936, "lon": -80.69704295190861, "alt_km": 21528.076476971826, "timestamp": "2025-12-07T22:37:43.323338+00:00", "meta": {"OBJECT_NAME": "BEIDOU-3 M28 (C50)", "OBJECT_ID": "2023-207A", "EPOCH": "2025-12-06T12:45:22.310208", "MEAN_MOTION": 1.86229594, "ECCENTRICITY": 0.00021908, "INCLINATION": 55.5792, "RA_OF_ASC_NODE": 68.8117, "ARG_OF_PERICENTER": 267.5881, "MEAN_ANOMALY": 92.402, "EPHEMERIS_TYPE": 0, "CLASSIFICATION_TYPE": "U", "NORAD_CAT_ID": 58654, "ELEMENT_SET_NO": 999, "REV_AT_EPOCH": 1325, "BSTAR": 0, "MEAN_MOTION_DOT": -4.7e-07, "MEAN_MOTION_DDOT": 0}, "tle": {"line1": "1 58654U 23207A   25340.53150822 -.00000047  00000+0  00000+0 0  9992", "line2": "2 58654  55.5792  68.8117 0002190 267.5881  92.4020  1.86229594 13257"}}, "geometry": {"type": "Point", "coordinates": [-80.69704295190861, -36.574097846753936]}}, {"type": "Feature", "properties": {"norad_id": 58655, "name": "BEIDOU-3 M26 (C48)", "group": "gnss", "lat": 1.5460129711732764, "lon": 69.81852394132974, "alt_km": 21531.396058317827, "timestamp": "2025-12-07T22:37:43.323358+00:00", "meta": {"OBJECT_NAME": "BEIDOU-3 M26 (C48)", "OBJECT_ID": "2023-207B", "EPOCH": "2025-12-06T07:54:02.813472", "MEAN_MOTION": 1.86231106, "ECCENTRICITY": 0.00035957, "INCLINATION": 55.5812, "RA_OF_ASC_NODE": 68.8048, "ARG_OF_PERICENTER": 252.9675, "MEAN_ANOMALY": 107.0074, "EPHEMERIS_TYPE": 0, "CLASSIFICATION_TYPE": "U", "NORAD_CAT_ID": 58655, "ELEMENT_SET_NO": 999, "REV_AT_EPOCH": 1323, "BSTAR": 0, "MEAN_MOTION_DOT": -4.8e-07, "MEAN_MOTION_DDOT": 0}, "tle": {"line1": "1 58655U 23207B   25340.32919923 -.00000048  00000+0  00000+0 0  9996", "line2": "2 58655  55.5812  68.8048 0003595 252.9675 107.0074  1.86231106 13235"}}, "geometry": {"type": "Point", "coordinates": [69.81852394132974, 1.5460129711732764]}}, {"type": "Feature", "properties": {"norad_id": 59598, "name": "GSAT0225 (GALILEO 29)", "group": "gnss", "lat": -27.439092705073858, "lon": -52.27103503791324, "alt_km": 23221.095802353, "timestamp": "2025-12-07T22:37:43.323376+00:00", "meta": {"OBJECT_NAME": "GSAT0225 (GALILEO 29)", "OBJECT_ID": "2024-079A", "EPOCH": "2025-12-07T00:05:19.286016", "MEAN_MOTION": 1.70474541, "ECCENTRICITY": 0.00020154, "INCLINATION": 54.9982, "RA_OF_ASC_NODE": 106.4552, "ARG_OF_PERICENTER": 174.2572, "MEAN_ANOMALY": 183.4806, "EPHEMERIS_TYPE": 0, "CLASSIFICATION_TYPE": "U", "NORAD_CAT_ID": 59598, "ELEMENT_SET_NO": 999, "REV_AT_EPOCH": 1003, "BSTAR": 0, "MEAN_MOTION_DOT": 6e-08, "MEAN_MOTION_DDOT": 0}, "tle": {"line1": "1 59598U 24079A   25341.00369544  .00000006  00000+0  00000+0 0  9998", "line2": "2 59598  54.9982 106.4552 0002015 174.2572 183.4806  1.70474541 10031"}}, "geometry": {"type": "Point", "coordinates": [-52.27103503791324, -27.439092705073858]}}]}